{
  "type": "FeatureCollection",
  "features": [
    {
      "type": "Feature",
      "properties": {
        "norad_id": 55973,
        "name": "TIANMU-1 03",
        "group": "weather",
        "lat": 74.5900406647147,
        "lon": 131.0374899203893,
        "alt_km": 433.5531296772606,
        "timestamp": "2025-12-22T16:55:17.091711+00:00",
        "meta_object_name": "TIANMU-1 03",
        "meta_object_id": "2023-039A",
        "meta_epoch": "2025-12-22T07:14:29.203296",
        "meta_mean_motion": 15.41186956,
        "meta_eccentricity": 0.00039411,
        "meta_inclination": 97.5109,
        "meta_ra_of_asc_node": 159.222,
        "meta_arg_of_pericenter": 33.5633,
        "meta_mean_anomaly": 326.5862,
        "meta_ephemeris_type": 0,
        "meta_classification_type": "U",
        "meta_norad_cat_id": 55973,
        "meta_element_set_no": 999,
        "meta_rev_at_epoch": 15353,
        "meta_bstar": 0.00039812485,
        "meta_mean_motion_dot": 0.00016449,
        "meta_mean_motion_ddot": 0,
        "tle_line1": "1 55973U 23039A   25356.30172689  .00016449  00000+0  39812-3 0  9992",
        "tle_line2": "2 55973  97.5109 159.2220 0003941  33.5633 326.5862 15.41186956153538"
      },
      "geometry": {
        "type": "Point",
        "coordinates": [
          131.0374899203893,
          74.5900406647147
        ]
      }
    },
    {
      "type": "Feature",
      "properties": {
        "norad_id": 55974,
        "name": "TIANMU-1 04",
        "group": "weather",
        "lat": -22.543804698053567,
        "lon": -24.313130993886727,
        "alt_km": 450.1837355464677,
        "timestamp": "2025-12-22T16:55:17.091721+00:00",
        "meta_object_name": "TIANMU-1 04",
        "meta_object_id": "2023-039B",
        "meta_epoch": "2025-12-22T06:41:51.998784",
        "meta_mean_motion": 15.41527386,
        "meta_eccentricity": 0.00045714,
        "meta_inclination": 97.504,
        "meta_ra_of_asc_node": 158.3858,
        "meta_arg_of_pericenter": 27.4851,
        "meta_mean_anomaly": 332.6636,
        "meta_ephemeris_type": 0,
        "meta_classification_type": "U",
        "meta_norad_cat_id": 55974,
        "meta_element_set_no": 999,
        "meta_rev_at_epoch": 15353,
        "meta_bstar": 0.00040674247,
        "meta_mean_motion_dot": 0.00017001,
        "meta_mean_motion_ddot": 0,
        "tle_line1": "1 55974U 23039B   25356.27907406  .00017001  00000+0  40674-3 0  9995",
        "tle_line2": "2 55974  97.5040 158.3858 0004571  27.4851 332.6636 15.41527386153537"
      },
      "geometry": {
        "type": "Point",
        "coordinates": [
          -24.313130993886727,
          -22.543804698053567
        ]
      }
    },
    {
      "type": "Feature",
      "properties": {
        "norad_id": 55975,
        "name": "TIANMU-1 05",
        "group": "weather",
        "lat": -40.51892402299651,
        "lon": -27.156285309914093,
        "alt_km": 452.05000994527927,
        "timestamp": "2025-12-22T16:55:17.091733+00:00",
        "meta_object_name": "TIANMU-1 05",
        "meta_object_id": "2023-039C",
        "meta_epoch": "2025-12-22T06:36:59.271264",
        "meta_mean_motion": 15.41142379,
        "meta_eccentricity": 0.00040743,
        "meta_inclination": 97.5087,
        "meta_ra_of_asc_node": 158.8751,
        "meta_arg_of_pericenter": 52.4728,
        "meta_mean_anomaly": 307.6888,
        "meta_ephemeris_type": 0,
        "meta_classification_type": "U",
        "meta_norad_cat_id": 55975,
        "meta_element_set_no": 999,
        "meta_rev_at_epoch": 15351,
        "meta_bstar": 0.00040052709,
        "meta_mean_motion_dot": 0.00016525,
        "meta_mean_motion_ddot": 0,
        "tle_line1": "1 55975U 23039C   25356.27568601  .00016525  00000+0  40053-3 0  9997",
        "tle_line2": "2 55975  97.5087 158.8751 0004074  52.4728 307.6888 15.41142379153519"
      },
      "geometry": {
        "type": "Point",
        "coordinates": [
          -27.156285309914093,
          -40.51892402299651
        ]
      }
    },
    {
      "type": "Feature",
      "properties": {
        "norad_id": 55976,
        "name": "TIANMU-1 06",
        "group": "weather",
        "lat": -12.469486594308314,
        "lon": -21.88194732238944,
        "alt_km": 448.48229148433256,
        "timestamp": "2025-12-22T16:55:17.091746+00:00",
        "meta_object_name": "TIANMU-1 06",
        "meta_object_id": "2023-039D",
        "meta_epoch": "2025-12-22T06:44:32.297568",
        "meta_mean_motion": 15.41578684,
        "meta_eccentricity": 0.000434,
        "meta_inclination": 97.5098,
        "meta_ra_of_asc_node": 159.3535,
        "meta_arg_of_pericenter": 46.6597,
        "meta_mean_anomaly": 313.5011,
        "meta_ephemeris_type": 0,
        "meta_classification_type": "U",
        "meta_norad_cat_id": 55976,
        "meta_element_set_no": 999,
        "meta_rev_at_epoch": 15353,
        "meta_bstar": 0.00040204821,
        "meta_mean_motion_dot": 0.00016831,
        "meta_mean_motion_ddot": 0,
        "tle_line1": "1 55976U 23039D   25356.28092937  .00016831  00000+0  40205-3 0  9992",
        "tle_line2": "2 55976  97.5098 159.3535 0004340  46.6597 313.5011 15.41578684153531"
      },
      "geometry": {
        "type": "Point",
        "coordinates": [
          -21.88194732238944,
          -12.469486594308314
        ]
      }
    },
    {
      "type": "Feature",
      "properties": {
        "norad_id": 56232,
        "name": "FENGYUN 3G",
        "group": "weather",
        "lat": 48.401126332067314,
        "lon": -112.8949833609346,
        "alt_km": 400.3434901747769,
        "timestamp": "2025-12-22T16:55:17.091757+00:00",
        "meta_object_name": "FENGYUN 3G",
        "meta_object_id": "2023-055A",
        "meta_epoch": "2025-12-22T05:47:15.098208",
        "meta_mean_motion": 15.54178866,
        "meta_eccentricity": 0.00092739,
        "meta_inclination": 49.9921,
        "meta_ra_of_asc_node": 178.403,
        "meta_arg_of_pericenter": 191.5009,
        "meta_mean_anomaly": 168.5748,
        "meta_ephemeris_type": 0,
        "meta_classification_type": "U",
        "meta_norad_cat_id": 56232,
        "meta_element_set_no": 999,
        "meta_rev_at_epoch": 15250,
        "meta_bstar": 0.00053083837,
        "meta_mean_motion_dot": 0.00034992,
        "meta_mean_motion_ddot": 0,
        "tle_line1": "1 56232U 23055A   25356.24114697  .00034992  00000+0  53084-3 0  9997",
        "tle_line2": "2 56232  49.9921 178.4030 0009273 191.5009 168.5748 15.54178866152506"
      },
      "geometry": {
        "type": "Point",
        "coordinates": [
          -112.8949833609346,
          48.401126332067314
        ]
      }
    },
    {
      "type": "Feature",
      "properties": {
        "norad_id": 57166,
        "name": "METEOR-M2 3",
        "group": "weather",
        "lat": -5.515449026222354,
        "lon": -130.77113555668393,
        "alt_km": 817.5504361286103,
        "timestamp": "2025-12-22T16:55:17.091767+00:00",
        "meta_object_name": "METEOR-M2 3",
        "meta_object_id": "2023-091A",
        "meta_epoch": "2025-12-22T05:56:06.662112",
        "meta_mean_motion": 14.24027222,
        "meta_eccentricity": 0.00033888,
        "meta_inclination": 98.6364,
        "meta_ra_of_asc_node": 49.6201,
        "meta_arg_of_pericenter": 339.8733,
        "meta_mean_anomaly": 20.2312,
        "meta_ephemeris_type": 0,
        "meta_classification_type": "U",
        "meta_norad_cat_id": 57166,
        "meta_element_set_no": 999,
        "meta_rev_at_epoch": 12933,
        "meta_bstar": 2.8174295e-05,
        "meta_mean_motion_dot": 2.1e-07,
        "meta_mean_motion_ddot": 0,
        "tle_line1": "1 57166U 23091A   25356.24729933  .00000021  00000+0  28174-4 0  9998",
        "tle_line2": "2 57166  98.6364  49.6201 0003388 339.8733  20.2312 14.24027222129337"
      },
      "geometry": {
        "type": "Point",
        "coordinates": [
          -130.77113555668393,
          -5.515449026222354
        ]
      }
    },
    {
      "type": "Feature",
      "properties": {
        "norad_id": 57399,
        "name": "TIANMU-1 07",
        "group": "weather",
        "lat": 38.25056171981264,
        "lon": -127.87565110185909,
        "alt_km": 478.1381620904167,
        "timestamp": "2025-12-22T16:55:17.091778+00:00",
        "meta_object_name": "TIANMU-1 07",
        "meta_object_id": "2023-101A",
        "meta_epoch": "2025-12-22T05:18:18.934272",
        "meta_mean_motion": 15.2819816,
        "meta_eccentricity": 0.00051905,
        "meta_inclination": 97.286,
        "meta_ra_of_asc_node": 45.862,
        "meta_arg_of_pericenter": 57.5268,
        "meta_mean_anomaly": 302.6474,
        "meta_ephemeris_type": 0,
        "meta_classification_type": "U",
        "meta_norad_cat_id": 57399,
        "meta_element_set_no": 999,
        "meta_rev_at_epoch": 13460,
        "meta_bstar": 0.00029781082,
        "meta_mean_motion_dot": 8.115e-05,
        "meta_mean_motion_ddot": 0,
        "tle_line1": "1 57399U 23101A   25356.22105248  .00008115  00000+0  29781-3 0  9999",
        "tle_line2": "2 57399  97.2860  45.8620 0005190  57.5268 302.6474 15.28198160134601"
      },
      "geometry": {
        "type": "Point",
        "coordinates": [
          -127.87565110185909,
          38.25056171981264
        ]
      }
    }
  ]
}